start=new Date('2022-04-16T00:00:00.000Z').valueOf();
sats=[{"TIME_SYSTEM":"UTC","REF_FRAME":"TEME","RCS_SIZE":"LARGE","DECAY_DATE":null,"MEAN_MOTION_DOT":"0.00002990","MEAN_MOTION_DDOT":"0.0000000000000","PERIOD":"95.592","OBJECT_NAME":"STARLINK-1890","SITE":"AFETR","SEMIMAJOR_AXIS":"6925.319","EPOCH":"2022-04-15T16:58:27.892992","ARG_OF_PERICENTER":"50.9846","ECCENTRICITY":"0.00018150","CLASSIFICATION_TYPE":"U","APOAPSIS":"548.441","INCLINATION":"53.0572","COUNTRY_CODE":"US","MEAN_ELEMENT_THEORY":"SGP4","REV_AT_EPOCH":"7721","LAUNCH_DATE":"2020-11-25","EPHEMERIS_TYPE":"0","PERIAPSIS":"545.927","TLE_LINE1":"1 47173U 20088BD  22105.70726728  .00002990  00000-0  21950-3 0  9999","OBJECT_ID":"2020-088BD","ELEMENT_SET_NO":"999","CENTER_NAME":"EARTH","OBJECT_TYPE":"PAYLOAD","GP_ID":"201341808","MEAN_MOTION":"15.06409692","NORAD_CAT_ID":"47173","TLE_LINE2":"2 47173  53.0572 214.1209 0001815  50.9846 309.1304 15.06409692 77211","FILE":"3403567","BSTAR":"0.00021950000000","MEAN_ANOMALY":"309.1304","RA_OF_ASC_NODE":"214.1209"},{"BSTAR":"-0.00006677300000","MEAN_ANOMALY":"318.6233","TLE_LINE2":"2 47174  53.0532 213.7820 0002130  41.4917 318.6233 15.06398570 77226","FILE":"3403567","RA_OF_ASC_NODE":"213.7820","EPHEMERIS_TYPE":"0","LAUNCH_DATE":"2020-11-25","PERIAPSIS":"545.743","REV_AT_EPOCH":"7722","MEAN_ELEMENT_THEORY":"SGP4","COUNTRY_CODE":"US","CENTER_NAME":"EARTH","ELEMENT_SET_NO":"999","OBJECT_ID":"2020-088BE","NORAD_CAT_ID":"47174","MEAN_MOTION":"15.06398570","OBJECT_TYPE":"PAYLOAD","GP_ID":"201342558","TLE_LINE1":"1 47174U 20088BE  22105.78467475 -.00001276  00000-0 -66773-4 0  9990","ECCENTRICITY":"0.00021300","ARG_OF_PERICENTER":"41.4917","EPOCH":"2022-04-15T18:49:55.898400","INCLINATION":"53.0532","APOAPSIS":"548.693","CLASSIFICATION_TYPE":"U","MEAN_MOTION_DDOT":"0.0000000000000","MEAN_MOTION_DOT":"-0.00001276","REF_FRAME":"TEME","TIME_SYSTEM":"UTC","DECAY_DATE":null,"RCS_SIZE":"LARGE","SEMIMAJOR_AXIS":"6925.353","OBJECT_NAME":"STARLINK-1891","PERIOD":"95.592","SITE":"AFETR"},{"RA_OF_ASC_NODE":"194.0795","TLE_LINE2":"2 47175  53.0550 194.0795 0002004  47.7018 312.4141 15.06415304 77494","FILE":"3403567","MEAN_ANOMALY":"312.4141","BSTAR":"0.00009188600000","TLE_LINE1":"1 47175U 20088BF  22105.71647253  .00001088  00000-0  91886-4 0  9990","OBJECT_ID":"2020-088BF","CENTER_NAME":"EARTH","ELEMENT_SET_NO":"999","GP_ID":"201341306","OBJECT_TYPE":"PAYLOAD","NORAD_CAT_ID":"47175","MEAN_MOTION":"15.06415304","COUNTRY_CODE":"US","MEAN_ELEMENT_THEORY":"SGP4","REV_AT_EPOCH":"7749","LAUNCH_DATE":"2020-11-25","EPHEMERIS_TYPE":"0","PERIAPSIS":"545.779","CLASSIFICATION_TYPE":"U","APOAPSIS":"548.554","INCLINATION":"53.0550","EPOCH":"2022-04-15T17:11:43.226592","ECCENTRICITY":"0.00020040","ARG_OF_PERICENTER":"47.7018","PERIOD":"95.591","OBJECT_NAME":"STARLINK-1895","SITE":"AFETR","SEMIMAJOR_AXIS":"6925.302","TIME_SYSTEM":"UTC","REF_FRAME":"TEME","DECAY_DATE":null,"RCS_SIZE":"LARGE","MEAN_MOTION_DOT":"0.00001088","MEAN_MOTION_DDOT":"0.0000000000000"},{"INCLINATION":"53.0550","APOAPSIS":"548.294","CLASSIFICATION_TYPE":"U","ARG_OF_PERICENTER":"61.4031","ECCENTRICITY":"0.00016040","EPOCH":"2022-04-15T18:24:42.945408","SEMIMAJOR_AXIS":"6925.318","OBJECT_NAME":"STARLINK-1907","PERIOD":"95.592","SITE":"AFETR","MEAN_MOTION_DDOT":"0.0000000000000","MEAN_MOTION_DOT":"0.00001313","REF_FRAME":"TEME","TIME_SYSTEM":"UTC","DECAY_DATE":null,"RCS_SIZE":"LARGE","RA_OF_ASC_NODE":"203.8527","BSTAR":"0.00010703000000","MEAN_ANOMALY":"298.7119","TLE_LINE2":"2 47177  53.0550 203.8527 0001604  61.4031 298.7119 15.06409918 77362","FILE":"3403567","CENTER_NAME":"EARTH","ELEMENT_SET_NO":"999","OBJECT_ID":"2020-088BH","MEAN_MOTION":"15.06409918","NORAD_CAT_ID":"47177","GP_ID":"201341556","OBJECT_TYPE":"PAYLOAD","TLE_LINE1":"1 47177U 20088BH  22105.76716372  .00001313  00000-0  10703-3 0  9995","LAUNCH_DATE":"2020-11-25","EPHEMERIS_TYPE":"0","PERIAPSIS":"546.072","REV_AT_EPOCH":"7736","COUNTRY_CODE":"US","MEAN_ELEMENT_THEORY":"SGP4"},{"RA_OF_ASC_NODE":"213.6364","MEAN_ANOMALY":"300.3286","BSTAR":"0.00052213000000","TLE_LINE2":"2 47178  53.0544 213.6364 0001659  59.7868 300.3286 15.06428669 77226","FILE":"3403567","ELEMENT_SET_NO":"999","CENTER_NAME":"EARTH","OBJECT_ID":"2020-088BJ","MEAN_MOTION":"15.06428669","NORAD_CAT_ID":"47178","OBJECT_TYPE":"PAYLOAD","GP_ID":"201342308","TLE_LINE1":"1 47178U 20088BJ  22105.81415562  .00007510  00000-0  52213-3 0  9996","LAUNCH_DATE":"2020-11-25","EPHEMERIS_TYPE":"0","PERIAPSIS":"545.977","REV_AT_EPOCH":"7722","COUNTRY_CODE":"US","MEAN_ELEMENT_THEORY":"SGP4","INCLINATION":"53.0544","APOAPSIS":"548.275","CLASSIFICATION_TYPE":"U","ARG_OF_PERICENTER":"59.7868","ECCENTRICITY":"0.00016590","EPOCH":"2022-04-15T19:32:23.045568","SEMIMAJOR_AXIS":"6925.261","OBJECT_NAME":"STARLINK-1912","PERIOD":"95.590","SITE":"AFETR","MEAN_MOTION_DOT":"0.00007510","MEAN_MOTION_DDOT":"0.0000000000000","REF_FRAME":"TEME","TIME_SYSTEM":"UTC","RCS_SIZE":"LARGE","DECAY_DATE":null},{"ELEMENT_SET_NO":"999","CENTER_NAME":"EARTH","OBJECT_ID":"2020-088BK","NORAD_CAT_ID":"47179","MEAN_MOTION":"15.06402879","GP_ID":"201342059","OBJECT_TYPE":"PAYLOAD","TLE_LINE1":"1 47179U 20088BK  22105.73583435 -.00001210  00000-0 -62331-4 0  9999","LAUNCH_DATE":"2020-11-25","EPHEMERIS_TYPE":"0","PERIAPSIS":"546.102","REV_AT_EPOCH":"7707","COUNTRY_CODE":"US","MEAN_ELEMENT_THEORY":"SGP4","RA_OF_ASC_NODE":"223.9825","BSTAR":"-0.00006233100000","MEAN_ANOMALY":"296.8782","TLE_LINE2":"2 47179  53.0542 223.9825 0001593  63.2370 296.8782 15.06402879 77074","FILE":"3403567","SEMIMAJOR_AXIS":"6925.340","OBJECT_NAME":"STARLINK-1913","PERIOD":"95.592","SITE":"AFETR","MEAN_MOTION_DOT":"-0.00001210","MEAN_MOTION_DDOT":"0.0000000000000","REF_FRAME":"TEME","TIME_SYSTEM":"UTC","RCS_SIZE":"LARGE","DECAY_DATE":null,"INCLINATION":"53.0542","APOAPSIS":"548.308","CLASSIFICATION_TYPE":"U","ECCENTRICITY":"0.00015930","ARG_OF_PERICENTER":"63.2370","EPOCH":"2022-04-15T17:39:36.087840"},{"INCLINATION":"53.0555","CLASSIFICATION_TYPE":"U","APOAPSIS":"548.715","ECCENTRICITY":"0.00021420","ARG_OF_PERICENTER":"43.2117","EPOCH":"2022-04-15T15:25:34.703328","SEMIMAJOR_AXIS":"6925.366","SITE":"AFETR","OBJECT_NAME":"STARLINK-1927","PERIOD":"95.593","MEAN_MOTION_DOT":"0.00000194","MEAN_MOTION_DDOT":"0.0000000000000","DECAY_DATE":null,"RCS_SIZE":"LARGE","REF_FRAME":"TEME","TIME_SYSTEM":"UTC","RA_OF_ASC_NODE":"194.4194","MEAN_ANOMALY":"316.9039","BSTAR":"0.00003197200000","FILE":"3403567","TLE_LINE2":"2 47181  53.0555 194.4194 0002142  43.2117 316.9039 15.06394236 77481","MEAN_MOTION":"15.06394236","NORAD_CAT_ID":"47181","OBJECT_TYPE":"PAYLOAD","GP_ID":"201340807","CENTER_NAME":"EARTH","ELEMENT_SET_NO":"999","OBJECT_ID":"2020-088BM","TLE_LINE1":"1 47181U 20088BM  22105.64276277  .00000194  00000-0  31972-4 0  9990","PERIAPSIS":"545.748","EPHEMERIS_TYPE":"0","LAUNCH_DATE":"2020-11-25","REV_AT_EPOCH":"7748","MEAN_ELEMENT_THEORY":"SGP4","COUNTRY_CODE":"US"},{"RA_OF_ASC_NODE":"227.3320","BSTAR":"-0.00091302000000","MEAN_ANOMALY":"314.1974","TLE_LINE2":"2 47349  53.0366 227.3320 0002112  45.9219 314.1974 15.76938218 69922","FILE":"3403567","ELEMENT_SET_NO":"999","CENTER_NAME":"EARTH","OBJECT_ID":"2021-005A","NORAD_CAT_ID":"47349","MEAN_MOTION":"15.76938218","OBJECT_TYPE":"PAYLOAD","GP_ID":"201342576","TLE_LINE1":"1 47349U 21005A   22105.87093331 -.00148918  00000-0 -91302-3 0  9990","EPHEMERIS_TYPE":"0","LAUNCH_DATE":"2021-01-20","PERIAPSIS":"337.705","REV_AT_EPOCH":"6992","MEAN_ELEMENT_THEORY":"SGP4","COUNTRY_CODE":"US","INCLINATION":"53.0366","APOAPSIS":"340.542","CLASSIFICATION_TYPE":"U","ARG_OF_PERICENTER":"45.9219","ECCENTRICITY":"0.00021120","EPOCH":"2022-04-15T20:54:08.637984","SEMIMAJOR_AXIS":"6717.258","OBJECT_NAME":"STARLINK-1952","PERIOD":"91.316","SITE":"AFETR","MEAN_MOTION_DDOT":"0.0000000000000","MEAN_MOTION_DOT":"-0.00148918","REF_FRAME":"TEME","TIME_SYSTEM":"UTC","DECAY_DATE":null,"RCS_SIZE":"LARGE"},{"COUNTRY_CODE":"US","MEAN_ELEMENT_THEORY":"SGP4","REV_AT_EPOCH":"6844","PERIAPSIS":"546.063","EPHEMERIS_TYPE":"0","LAUNCH_DATE":"2021-01-20","TLE_LINE1":"1 47350U 21005B   22105.88049711  .00002106  00000-0  16021-3 0  9997","OBJECT_TYPE":"PAYLOAD","GP_ID":"201341324","NORAD_CAT_ID":"47350","MEAN_MOTION":"15.06410628","OBJECT_ID":"2021-005B","ELEMENT_SET_NO":"999","CENTER_NAME":"EARTH","FILE":"3403567","TLE_LINE2":"2 47350  53.0570 333.3457 0001615  66.9242 293.1917 15.06410628 68448","BSTAR":"0.00016021000000","MEAN_ANOMALY":"293.1917","RA_OF_ASC_NODE":"333.3457","DECAY_DATE":null,"RCS_SIZE":"LARGE","TIME_SYSTEM":"UTC","REF_FRAME":"TEME","MEAN_MOTION_DDOT":"0.0000000000000","MEAN_MOTION_DOT":"0.00002106","SITE":"AFETR","PERIOD":"95.591","OBJECT_NAME":"STARLINK-2011","SEMIMAJOR_AXIS":"6925.316","EPOCH":"2022-04-15T21:07:54.950304","ARG_OF_PERICENTER":"66.9242","ECCENTRICITY":"0.00016150","APOAPSIS":"548.299","CLASSIFICATION_TYPE":"U","INCLINATION":"53.0570"},{"REV_AT_EPOCH":"6899","COUNTRY_CODE":"US","MEAN_ELEMENT_THEORY":"SGP4","PERIAPSIS":"546.205","EPHEMERIS_TYPE":"0","LAUNCH_DATE":"2021-01-20","TLE_LINE1":"1 47351U 21005C   22105.84363728  .00004547  00000-0  32384-3 0  9992","NORAD_CAT_ID":"47351","MEAN_MOTION":"15.06415564","OBJECT_TYPE":"PAYLOAD","GP_ID":"201341574","ELEMENT_SET_NO":"999","CENTER_NAME":"EARTH","OBJECT_ID":"2021-005C","FILE":"3403567","TLE_LINE2":"2 47351  53.0540 293.5002 0001387  78.5948 281.5197 15.06415564 68992","MEAN_ANOMALY":"281.5197","BSTAR":"0.00032384000000","RA_OF_ASC_NODE":"293.5002","DECAY_DATE":null,"RCS_SIZE":"LARGE","REF_FRAME":"TEME","TIME_SYSTEM":"UTC","MEAN_MOTION_DDOT":"0.0000000000000","MEAN_MOTION_DOT":"0.00004547","SITE":"AFETR","OBJECT_NAME":"STARLINK-2017","PERIOD":"95.591","SEMIMAJOR_AXIS":"6925.301","EPOCH":"2022-04-15T20:14:50.260992","ECCENTRICITY":"0.00013870","ARG_OF_PERICENTER":"78.5948","APOAPSIS":"548.126","CLASSIFICATION_TYPE":"U","INCLINATION":"53.0540"}];
